NORAD_CAT_ID,OBJECT_NAME,OBJECT_TYPE,EPOCH,MEAN_MOTION,ECCENTRICITY,INCLINATION,RA_OF_ASC_NODE,ARG_OF_PERICENTER,MEAN_ANOMALY,BSTAR,MEAN_MOTION_DOT,MEAN_MOTION_DDOT,TLE_LINE0,TLE_LINE1,TLE_LINE2,SEMIMAJOR_AXIS,PERIOD,APOGEE,PERIGEE,DECAYED
56489.0,STARLINK-5923,PAYLOAD,2023-08-10 09:38:26,15.69930468,0.0003375,69.9992,347.5311,266.6131,93.4679,2.6095e-05,2.927e-05,0.0,0 STARLINK-5923,1 56489U 23064AT  23222.40169894  .00002927  00000-0  26095-4 0  9995,2 56489  69.9992 347.5311 0003375 266.6131  93.4679 15.69930468 14762,6737.233,91.724,361.372,356.824,0.0
56489.0,STARLINK-5923,PAYLOAD,2023-08-11 10:06:29,15.69925111,0.0003576,69.9999,344.663,275.4593,84.6194,1.8117e-05,1.966e-05,0.0,0 STARLINK-5923,1 56489U 23064AT  23223.42116905  .00001966  00000-0  18117-4 0  9991,2 56489  69.9999 344.6630 0003576 275.4593  84.6194 15.69925111 14925,6737.248,91.724,361.522,356.704,0.0
56489.0,STARLINK-5923,PAYLOAD,2023-08-12 10:34:30,15.69927934,0.0003425,69.9994,341.7959,262.7307,97.3499,3.2625e-06,1.8e-06,0.0,0 STARLINK-5923,1 56489U 23064AT  23224.44063510  .00000180  00000-0  32625-5 0  9995,2 56489  69.9994 341.7959 0003425 262.7307  97.3499 15.69927934 15089,6737.24,91.724,361.413,356.798,0.0
56489.0,STARLINK-5923,PAYLOAD,2023-08-13 17:09:36,15.69902865,0.0003627,70.0001,338.214,265.1479,94.9302,8.6311e-07,-1.09e-06,0.0,0 STARLINK-5923,1 56489U 23064AT  23225.71500034 -.00000109  00000-0  86311-6 0  9997,2 56489  70.0001 338.2140 0003627 265.1479  94.9302 15.69902865 15289,6737.312,91.725,361.621,356.733,0.0
56489.0,STARLINK-5923,PAYLOAD,2023-08-14 09:58:51,15.69934033,0.0003178,70.0008,336.2426,270.1745,89.9087,9.8275e-05,0.00011625,0.0,0 STARLINK-5923,1 56489U 23064AT  23226.41587858  .00011625  00000-0  98275-4 0  9998,2 56489  70.0008 336.2426 0003178 270.1745  89.9087 15.69934033 15392,6737.223,91.724,361.229,356.947,0.0
56489.0,STARLINK-5923,PAYLOAD,2023-08-15 10:26:52,15.69948261,0.0002709,69.9997,333.378,253.5959,106.4939,9.104e-06,8.83e-06,0.0,0 STARLINK-5923,1 56489U 23064AT  23227.43532728  .00000883  00000-0  91040-5 0  9995,2 56489  69.9997 333.3780 0002709 253.5959 106.4939 15.69948261 15555,6737.182,91.723,360.872,357.222,0.0
56489.0,STARLINK-5923,PAYLOAD,2023-08-16 00:12:38,15.69928396,0.0003081,70.0001,331.7658,265.7594,94.325,-4.2159e-05,-5.279e-05,0.0,0 STARLINK-5923,1 56489U 23064AT  23228.00877822 -.00005279  00000-0 -42159-4 0  9998,2 56489  70.0001 331.7658 0003081 265.7594  94.3250 15.69928396 15642,6737.239,91.724,361.18,357.028,0.0
56489.0,STARLINK-5923,PAYLOAD,2023-08-16 09:23:09,15.69935487,0.0003325,70.0016,330.689,273.1557,86.9258,-8.4878e-06,-1.234e-05,0.0,0 STARLINK-5923,1 56489U 23064AT  23228.39107741 -.00001234  00000-0 -84878-5 0  9998,2 56489  70.0016 330.6890 0003325 273.1557  86.9258 15.69935487 15708,6737.219,91.724,361.324,356.843,0.0
56489.0,STARLINK-5923,PAYLOAD,2023-08-17 09:51:10,15.69926496,0.0002874,69.9995,327.8241,263.7999,96.2869,1.1852e-05,1.213e-05,0.0,0 STARLINK-5923,1 56489U 23064AT  23229.41054190  .00001213  00000-0  11852-4 0  9997,2 56489  69.9995 327.8241 0002874 263.7999  96.2869 15.69926496 15861,6737.244,91.724,361.046,357.173,0.0
56489.0,STARLINK-5923,PAYLOAD,2023-08-18 08:47:28,15.69927319,0.0003115,70.0015,325.1389,266.8413,93.2426,2.0864e-05,2.297e-05,0.0,0 STARLINK-5923,1 56489U 23064AT  23230.36629669  .00002297  00000-0  20864-4 0  9998,2 56489  70.0015 325.1389 0003115 266.8413  93.2426 15.69927319 16014,6737.242,91.724,361.206,357.008,0.0
56489.0,STARLINK-5923,PAYLOAD,2023-08-19 09:15:30,15.69919394,0.0002746,69.9996,322.2712,255.0344,105.0548,6.8368e-06,6.1e-06,0.0,0 STARLINK-5923,1 56489U 23064AT  23231.38576542  .00000610  00000-0  68368-5 0  9991,2 56489  69.9996 322.2712 0002746 255.0344 105.0548 15.69919394 16177,6737.265,91.724,360.98,357.28,0.0
56489.0,STARLINK-5923,PAYLOAD,2023-08-20 09:43:31,15.69933949,0.0002953,69.9998,319.4053,268.2485,91.8372,2.1992e-05,2.433e-05,0.0,0 STARLINK-5923,1 56489U 23064AT  23232.40522582  .00002433  00000-0  21992-4 0  9996,2 56489  69.9998 319.4053 0002953 268.2485  91.8372 15.69933949 16334,6737.223,91.724,361.077,357.098,0.0
56489.0,STARLINK-5923,PAYLOAD,2023-08-20 23:29:18,15.69919417,0.0002706,70.0002,317.792,264.9181,95.1706,-1.555e-06,-3.99e-06,0.0,0 STARLINK-5923,1 56489U 23064AT  23232.97868313 -.00000399  00000-0 -15550-5 0  9998,2 56489  70.0002 317.7920 0002706 264.9181  95.1706 15.69919417 16421,6737.265,91.724,360.953,357.306,0.0
56489.0,STARLINK-5923,PAYLOAD,2023-08-22 04:32:35,15.69924703,0.0003136,69.9997,314.389,268.9961,91.0876,1.72e-06,-6e-08,0.0,0 STARLINK-5923,1 56489U 23064AT  23234.18929838 -.00000006  00000-0  17200-5 0  9991,2 56489  69.9997 314.3890 0003136 268.9961  91.0876 15.69924703 16616,6737.249,91.724,361.227,357.002,0.0
56489.0,STARLINK-5923,PAYLOAD,2023-08-22 09:07:50,15.69942199,0.0002331,70.0011,313.8526,252.7932,107.3008,3.9723e-05,4.57e-05,0.0,0 STARLINK-5923,1 56489U 23064AT  23234.38044063  .00004570  00000-0  39723-4 0  9993,2 56489  70.0011 313.8526 0002331 252.7932 107.3008 15.69942199 16641,6737.199,91.723,360.635,357.494,0.0
56489.0,STARLINK-5923,PAYLOAD,2023-08-23 12:39:23,15.69923552,0.0002762,70.0005,310.6284,262.0408,98.0475,1.0948e-05,1.104e-05,0.0,0 STARLINK-5923,1 56489U 23064AT  23235.52735132  .00001104  00000-0  10948-4 0  9992,2 56489  70.0005 310.6284 0002762 262.0408  98.0475 15.69923552 16826,6737.253,91.724,360.979,357.257,0.0
56489.0,STARLINK-5923,PAYLOAD,2023-08-24 08:32:09,15.69919777,0.0002395,70.0029,308.3024,233.5334,126.5641,1.3631e-05,1.427e-05,0.0,0 STARLINK-5923,1 56489U 23064AT  23236.35567031  .00001427  00000-0  13631-4 0  9995,2 56489  70.0029 308.3024 0002395 233.5334 126.5641 15.69919777 16603,6737.264,91.724,360.742,357.515,0.0
56489.0,STARLINK-5923,PAYLOAD,2023-08-24 22:17:55,15.69931424,0.0002808,70.0009,306.6871,258.8782,101.2098,2.5845e-05,2.897e-05,0.0,0 STARLINK-5923,1 56489U 23064AT  23236.92911328  .00002897  00000-0  25845-4 0  9992,2 56489  70.0009 306.6871 0002808 258.8782 101.2098 15.69931424 17046,6737.23,91.724,360.987,357.203,0.0
56489.0,STARLINK-5923,PAYLOAD,2023-08-25 07:28:26,15.69917266,0.0003543,69.9995,305.6107,276.2813,83.7979,-7.0052e-06,-1.055e-05,0.0,0 STARLINK-5923,1 56489U 23064AT  23237.31142201 -.00001055  00000-0 -70052-5 0  9990,2 56489  69.9995 305.6107 0003543 276.2813  83.7979 15.69917266 17101,6737.271,91.725,361.523,356.749,0.0
56489.0,STARLINK-5923,PAYLOAD,2023-08-25 13:35:27,15.69924062,0.000298,70.0004,304.8954,264.1969,95.8887,6.0778e-06,5.18e-06,0.0,0 STARLINK-5923,1 56489U 23064AT  23237.56628479  .00000518  00000-0  60778-5 0  9998,2 56489  70.0004 304.8954 0002980 264.1969  95.8887 15.69924062 16796,6737.251,91.724,361.124,357.109,0.0
56489.0,STARLINK-5923,PAYLOAD,2023-08-26 07:56:28,15.69927012,0.0003003,70.0,302.7448,259.5865,100.4992,2.6699e-05,2.999e-05,0.0,0 STARLINK-5923,1 56489U 23064AT  23238.33088493  .00002999  00000-0  26699-4 0  9998,2 56489  70.0000 302.7448 0003003 259.5865 100.4992 15.69927012 16919,6737.243,91.724,361.131,357.085,0.0
56489.0,STARLINK-5923,PAYLOAD,2023-08-27 03:49:15,15.69922127,0.0003245,70.0002,300.4159,263.7178,96.3648,2.1895e-05,2.421e-05,0.0,0 STARLINK-5923,1 56489U 23064AT  23239.15920484  .00002421  00000-0  21895-4 0  9997,2 56489  70.0002 300.4159 0003245 263.7178  96.3648 15.69922127 17393,6737.257,91.724,361.308,356.936,0.0
56489.0,STARLINK-5923,PAYLOAD,2023-08-27 05:21:00,15.69924668,0.0002838,70.0008,300.2371,253.526,106.5624,2.5077e-05,2.804e-05,0.0,0 STARLINK-5923,1 56489U 23064AT  23239.22291976  .00002804  00000-0  25077-4 0  9993,2 56489  70.0008 300.2371 0002838 253.5260 106.5624 15.69924668 17052,6737.25,91.724,361.027,357.202,0.0
56489.0,STARLINK-5923,PAYLOAD,2023-08-27 12:59:46,15.69921401,0.0003903,70.0002,299.3436,273.0707,87.0042,7.8262e-06,7.28e-06,0.0,0 STARLINK-5923,1 56489U 23064AT  23239.54150624  .00000728  00000-0  78262-5 0  9990,2 56489  70.0002 299.3436 0003903 273.0707  87.0042 15.69921401 17108,6737.259,91.724,361.753,356.494,0.0
56489.0,STARLINK-5923,PAYLOAD,2023-08-28 10:24:17,15.69923946,0.000356,69.9992,296.8333,266.8172,93.2616,7.5937e-06,7e-06,0.0,0 STARLINK-5923,1 56489U 23064AT  23240.43353820  .00000700  00000-0  75937-5 0  9999,2 56489  69.9992 296.8333 0003560 266.8172  93.2616 15.69923946 17591,6737.252,91.724,361.515,356.718,0.0
56489.0,STARLINK-5923,PAYLOAD,2023-08-28 13:27:47,15.69927136,0.0003434,69.9992,296.4737,264.8165,95.2639,9.2099e-06,8.95e-06,0.0,0 STARLINK-5923,1 56489U 23064AT  23240.56096801  .00000895  00000-0  92099-5 0  9999,2 56489  69.9992 296.4737 0003434 264.8165  95.2639 15.69927136 17261,6737.242,91.724,361.421,356.794,0.0
56489.0,STARLINK-5923,PAYLOAD,2023-08-29 12:24:04,15.69923244,0.0003389,69.9988,293.7866,263.4564,96.6246,-1.9765e-06,-4.5e-06,0.0,0 STARLINK-5923,1 56489U 23064AT  23241.51672376 -.00000450  00000-0 -19765-5 0  9990,2 56489  69.9988 293.7866 0003389 263.4564  96.6246 15.69923244 17766,6737.254,91.724,361.402,356.835,0.0
56489.0,STARLINK-5923,PAYLOAD,2023-08-29 23:06:19,15.69942949,0.0003524,69.9995,292.5339,268.3451,91.7341,3.5328e-05,4.04e-05,0.0,0 STARLINK-5923,1 56489U 23064AT  23241.96273006  .00004040  00000-0  35328-4 0  9995,2 56489  69.9995 292.5339 0003524 268.3451  91.7341 15.69942949 17839,6737.197,91.723,361.436,356.688,0.0
56489.0,STARLINK-5923,PAYLOAD,2023-08-30 06:45:06,15.69909538,0.0003624,69.9986,291.6368,275.77,84.3083,-7.4193e-06,-1.104e-05,0.0,0 STARLINK-5923,1 56489U 23064AT  23242.28133085 -.00001104  00000-0 -74193-5 0  9997,2 56489  69.9986 291.6368 0003624 275.7700  84.3083 15.69909538 17884,6737.293,91.725,361.599,356.716,0.0
56489.0,STARLINK-5923,PAYLOAD,2023-08-30 12:52:06,15.69923108,0.000322,69.9995,290.9211,268.5482,91.5344,6.4437e-06,5.62e-06,0.0,0 STARLINK-5923,1 56489U 23064AT  23242.53619212  .00000562  00000-0  64437-5 0  9991,2 56489  69.9995 290.9211 0003220 268.5482  91.5344 15.69923108 17926,6737.254,91.724,361.288,356.95,0.0
